{
  "type": "FeatureCollection",
  "name": "Night City 2045 transit route centerlines",
  "metadata": {
    "world_id": "night-city-2045",
    "source": "Night City 2045 Railways flashmap p. 27",
    "coordinate_space": "night_city_clean_master_5175x7966_px",
    "width": 5175,
    "height": 7966,
    "origin": "top-left",
    "derivation": "Recovered from refined August transit geometry; source-derived route centrelines, not schematic interpolation."
  },
  "features": [
    {
      "type": "Feature",
      "properties": {
        "line_id": "red",
        "name": "NCART Red Line",
        "system": "NCART",
        "color": "#ED2D24",
        "geometry_status": "derived_from_source_vector",
        "derivation": "medial axis of exact PDF vector ribbon at 8 px per PDF point"
      },
      "geometry": {
        "type": "LineString",
        "coordinates": [
          [
            1989.76,
            2245.539
          ],
          [
            1999.725,
            2267.13
          ],
          [
            2006.369,
            2272.113
          ],
          [
            2152.528,
            2318.618
          ],
          [
            2172.459,
            2320.279
          ],
          [
            2192.39,
            2310.314
          ],
          [
            2298.688,
            2217.303
          ],
          [
            2318.618,
            2210.66
          ],
          [
            2330.245,
            2213.981
          ],
          [
            2488.03,
            2571.075
          ],
          [
            2489.691,
            2589.345
          ],
          [
            2479.726,
            2607.615
          ],
          [
            2248.861,
            2866.716
          ],
          [
            2240.556,
            2883.325
          ],
          [
            2194.051,
            3062.702
          ],
          [
            2179.103,
            3140.765
          ],
          [
            2199.034,
            3149.069
          ],
          [
            2635.851,
            3247.062
          ],
          [
            2652.46,
            3255.367
          ],
          [
            3061.041,
            3647.339
          ],
          [
            3064.363,
            3655.644
          ],
          [
            3062.702,
            3675.575
          ],
          [
            2986.301,
            3854.952
          ],
          [
            2982.979,
            3874.883
          ],
          [
            2986.301,
            3886.509
          ],
          [
            3574.26,
            4200.419
          ],
          [
            3580.904,
            4210.385
          ],
          [
            3575.921,
            4231.977
          ],
          [
            3275.298,
            4711.977
          ],
          [
            3268.654,
            4720.282
          ],
          [
            3245.401,
            4725.264
          ]
        ]
      }
    },
    {
      "type": "Feature",
      "properties": {
        "line_id": "green",
        "name": "NCART Green Line",
        "system": "NCART",
        "color": "#6BBD45",
        "geometry_status": "derived_from_source_vector",
        "derivation": "medial axis of exact PDF vector ribbon at 8 px per PDF point"
      },
      "geometry": {
        "type": "LineString",
        "coordinates": [
          [
            3062.702,
            4956.129
          ],
          [
            3062.702,
            4944.503
          ],
          [
            3268.654,
            4721.942
          ],
          [
            3811.769,
            4376.475
          ],
          [
            3821.734,
            4364.849
          ],
          [
            3815.091,
            4326.648
          ],
          [
            3567.616,
            3634.052
          ],
          [
            3562.634,
            3610.8
          ],
          [
            3549.346,
            3252.045
          ],
          [
            3542.703,
            3197.235
          ],
          [
            3313.498,
            2634.19
          ],
          [
            2997.927,
            2483.047
          ],
          [
            2982.979,
            2479.726
          ],
          [
            2959.726,
            2481.386
          ],
          [
            2499.657,
            2584.363
          ],
          [
            2479.726,
            2571.075
          ]
        ]
      }
    },
    {
      "type": "Feature",
      "properties": {
        "line_id": "blue",
        "name": "NCART Blue Line",
        "system": "NCART",
        "color": "#62CBE6",
        "geometry_status": "derived_from_source_vector",
        "derivation": "medial axis of exact PDF vector ribbon at 8 px per PDF point"
      },
      "geometry": {
        "type": "LineString",
        "coordinates": [
          [
            2200.695,
            3137.443
          ],
          [
            2172.459,
            3150.73
          ],
          [
            1931.628,
            3703.81
          ],
          [
            1924.985,
            3708.793
          ],
          [
            1895.089,
            3705.471
          ],
          [
            1687.476,
            3649
          ],
          [
            1649.275,
            3645.678
          ],
          [
            1644.292,
            3663.948
          ],
          [
            1635.988,
            3863.257
          ],
          [
            1687.476,
            3864.917
          ],
          [
            1936.611,
            3853.291
          ],
          [
            1933.289,
            3894.814
          ],
          [
            1878.479,
            4105.748
          ],
          [
            1875.158,
            4147.271
          ],
          [
            1886.784,
            4150.592
          ],
          [
            2253.843,
            4177.167
          ],
          [
            2255.504,
            4318.344
          ],
          [
            2252.182,
            4378.136
          ]
        ]
      }
    },
    {
      "type": "Feature",
      "properties": {
        "line_id": "orange",
        "name": "NCART Orange Line",
        "system": "NCART",
        "color": "#FEBB12",
        "geometry_status": "derived_from_source_vector",
        "derivation": "medial axis of exact PDF vector ribbon at 8 px per PDF point"
      },
      "geometry": {
        "type": "LineString",
        "coordinates": [
          [
            1366.922,
            5620.49
          ],
          [
            1391.835,
            5627.134
          ],
          [
            2223.947,
            5120.559
          ],
          [
            2230.591,
            5110.594
          ],
          [
            2275.435,
            4720.282
          ],
          [
            2277.096,
            4680.42
          ],
          [
            2272.113,
            4675.437
          ],
          [
            1621.04,
            4509.347
          ],
          [
            1614.396,
            4504.364
          ],
          [
            1672.528,
            4148.932
          ],
          [
            1677.51,
            4145.61
          ],
          [
            1863.531,
            4148.932
          ],
          [
            1876.819,
            4137.305
          ]
        ]
      }
    },
    {
      "type": "Feature",
      "properties": {
        "line_id": "purple",
        "name": "Executive Monorail",
        "system": "Executive Monorail",
        "color": "#A91F64",
        "geometry_status": "derived_from_source_vector",
        "derivation": "main loop plus two spurs from medial axis of exact PDF vector ribbons at 8 px per PDF point"
      },
      "geometry": {
        "type": "MultiLineString",
        "coordinates": [
          [
            [
              3544.364,
              4226.994
            ],
            [
              3560.973,
              4213.707
            ],
            [
              3748.655,
              3949.624
            ],
            [
              3755.298,
              3929.693
            ],
            [
              3751.976,
              3913.084
            ],
            [
              3416.474,
              3192.252
            ],
            [
              3409.831,
              3154.052
            ],
            [
              3396.543,
              3144.086
            ],
            [
              3384.917,
              3119.173
            ],
            [
              3374.952,
              2999.588
            ],
            [
              3330.107,
              2612.598
            ],
            [
              3323.464,
              2604.293
            ],
            [
              2640.833,
              2220.625
            ],
            [
              2610.937,
              2217.303
            ],
            [
              2542.84,
              2235.573
            ],
            [
              2444.847,
              2297.027
            ],
            [
              2434.882,
              2306.992
            ],
            [
              2217.303,
              2876.681
            ],
            [
              2152.528,
              3132.46
            ],
            [
              1584.5,
              3320.142
            ],
            [
              1576.196,
              3330.107
            ],
            [
              1582.839,
              3355.021
            ],
            [
              2057.857,
              3863.257
            ],
            [
              2282.079,
              4324.987
            ],
            [
              2290.383,
              4329.97
            ],
            [
              2321.94,
              4324.987
            ],
            [
              2997.927,
              4080.835
            ],
            [
              3016.197,
              4065.887
            ],
            [
              3072.668,
              3997.789
            ],
            [
              3089.277,
              3989.485
            ],
            [
              3117.512,
              3997.789
            ],
            [
              3514.468,
              4217.028
            ],
            [
              3544.364,
              4226.994
            ]
          ],
          [
            [
              3408.17,
              3152.391
            ],
            [
              3411.492,
              3149.069
            ],
            [
              3645.679,
              3147.408
            ]
          ],
          [
            [
              3384.917,
              3119.173
            ],
            [
              3379.934,
              3124.156
            ],
            [
              3346.716,
              3130.799
            ],
            [
              3066.024,
              3268.654
            ],
            [
              3042.771,
              3260.349
            ]
          ]
        ]
      }
    },
    {
      "type": "Feature",
      "properties": {
        "line_id": "cargo",
        "name": "Cargo Rail Line",
        "system": "Cargo Rail",
        "color": "#FFFFFF",
        "geometry_status": "derived_from_source_vector",
        "derivation": "midline averaged from the two paired white source rail strokes"
      },
      "geometry": {
        "type": "MultiLineString",
        "coordinates": [
          [
            [
              1608.285,
              6819.773
            ],
            [
              4715.725,
              6819.499
            ],
            [
              5264.58,
              5338.453
            ],
            [
              5296.133,
              5104.918
            ],
            [
              4476.712,
              4632.359
            ],
            [
              4428.024,
              4214.017
            ],
            [
              3492.627,
              4268.354
            ],
            [
              2835.351,
              3969.973
            ],
            [
              2761.947,
              4102.658
            ],
            [
              2131.663,
              4082.191
            ],
            [
              2134.803,
              4236.197
            ],
            [
              1853.869,
              4241.551
            ],
            [
              1710.962,
              4437.969
            ],
            [
              1714.113,
              4445.365
            ],
            [
              2241.89,
              4696.637
            ],
            [
              2247.814,
              4709.351
            ],
            [
              2237.042,
              5207.119
            ],
            [
              2233.894,
              5214.011
            ],
            [
              1598.342,
              5760.359
            ],
            [
              1592.699,
              5770.182
            ],
            [
              1608.285,
              6819.773
            ]
          ],
          [
            [
              1423.138,
              8131.354
            ],
            [
              1414.788,
              8120.579
            ],
            [
              1578.884,
              6821.32
            ],
            [
              1563.542,
              5770.538
            ],
            [
              1578.497,
              5738.968
            ],
            [
              2192.632,
              5211.01
            ],
            [
              2208.457,
              5179.532
            ],
            [
              2218.261,
              4726.493
            ],
            [
              2209.63,
              4712.8
            ],
            [
              1670.44,
              4456.315
            ],
            [
              1669.153,
              4443.941
            ],
            [
              1828.271,
              4226.145
            ],
            [
              1859.193,
              4210.879
            ],
            [
              2090.292,
              4207.742
            ],
            [
              2104.166,
              4193.141
            ],
            [
              2099.4,
              4068.463
            ],
            [
              2112.568,
              4053.821
            ],
            [
              2727.792,
              4072.424
            ],
            [
              2755.633,
              4055.179
            ],
            [
              2815.382,
              3947.058
            ],
            [
              2835.33,
              3940.24
            ],
            [
              3475.114,
              4228.796
            ],
            [
              3511.773,
              4236.418
            ],
            [
              4416.162,
              4184.791
            ],
            [
              4433.03,
              4169.187
            ],
            [
              4597.812,
              3376.251
            ],
            [
              4591.914,
              3359.259
            ],
            [
              3277.104,
              1374.211
            ],
            [
              3260.277,
              1369.639
            ],
            [
              2720.359,
              1369.639
            ],
            [
              2714.326,
              1366.066
            ],
            [
              2729.224,
              -79.034
            ],
            [
              2732.892,
              -85.032
            ],
            [
              2740.94,
              -86.388
            ],
            [
              2758.24,
              -65.16
            ],
            [
              2742.938,
              1323.116
            ],
            [
              2755.894,
              1338.909
            ],
            [
              3274.948,
              1340.474
            ],
            [
              3297.967,
              1351.461
            ],
            [
              4617.673,
              3345.344
            ],
            [
              4633.095,
              3352.515
            ],
            [
              6195,
              3350.484
            ],
            [
              6199.948,
              3355.175
            ],
            [
              6199.836,
              3362.58
            ],
            [
              6178.349,
              3379.671
            ],
            [
              4645.369,
              3381.663
            ],
            [
              4622.461,
              3400.935
            ],
            [
              4458.276,
              4193.901
            ],
            [
              4504.308,
              4614.088
            ],
            [
              5328.087,
              5092.444
            ],
            [
              5291.467,
              5349.843
            ],
            [
              4739.822,
              6841.313
            ],
            [
              4725.853,
              6848.939
            ],
            [
              1611.682,
              6848.939
            ],
            [
              1606.142,
              6853.604
            ],
            [
              1440.819,
              8134.928
            ],
            [
              1423.138,
              8131.354
            ]
          ]
        ]
      }
    }
  ]
}
